[{"OBJECT_NAME":"STARLINK-34982","OBJECT_ID":"2025-179J","EPOCH":"2026-03-09T16:14:18.215808","MEAN_MOTION":15.05649934,"ECCENTRICITY":6.969e-5,"INCLINATION":97.603,"RA_OF_ASC_NODE":112.909,"ARG_OF_PERICENTER":117.7147,"MEAN_ANOMALY":242.4151,"EPHEMERIS_TYPE":0,"CLASSIFICATION_TYPE":"U","NORAD_CAT_ID":65243,"ELEMENT_SET_NO":999,"REV_AT_EPOCH":3197,"BSTAR":0.00016155937,"MEAN_MOTION_DOT":2.271e-5,"MEAN_MOTION_DDOT":0},{"OBJECT_NAME":"COSMOS 2251 DEB","OBJECT_ID":"1993-036GR","EPOCH":"2026-03-09T03:51:30.155616","MEAN_MOTION":15.03624382,"ECCENTRICITY":0.001162,"INCLINATION":74.0519,"RA_OF_ASC_NODE":328.1155,"ARG_OF_PERICENTER":228.8449,"MEAN_ANOMALY":281.5146,"EPHEMERIS_TYPE":0,"CLASSIFICATION_TYPE":"U","NORAD_CAT_ID":34006,"ELEMENT_SET_NO":999,"REV_AT_EPOCH":89963,"BSTAR":0.0037151817,"MEAN_MOTION_DOT":0.00051242,"MEAN_MOTION_DDOT":0}]
